{
    "links": {
        "self": "http://www.neowsapp.com/rest/v1/neo/3781973?api_key=iIulBulltgU6a56xZRHN4H3l9WmuAYTsLGpBGhQ2"
    },
    "id": "3781973",
    "neo_reference_id": "3781973",
    "name": "(2017 SK19)",
    "designation": "2017 SK19",
    "nasa_jpl_url": "http://ssd.jpl.nasa.gov/sbdb.cgi?sstr=3781973",
    "absolute_magnitude_h": 25.3,
    "estimated_diameter": {
        "kilometers": {
            "estimated_diameter_min": 0.0231502122,
            "estimated_diameter_max": 0.0517654482
        },
        "meters": {
            "estimated_diameter_min": 23.150212221,
            "estimated_diameter_max": 51.7654482198
        },
        "miles": {
            "estimated_diameter_min": 0.0143848705,
            "estimated_diameter_max": 0.0321655483
        },
        "feet": {
            "estimated_diameter_min": 75.9521422633,
            "estimated_diameter_max": 169.8341531374
        }
    },
    "is_potentially_hazardous_asteroid": false,
    "close_approach_data": [
        {
            "close_approach_date": "2017-09-09",
            "close_approach_date_full": "2017-Sep-09 12:57",
            "epoch_date_close_approach": 1504961820000,
            "relative_velocity": {
                "kilometers_per_second": "13.4274763281",
                "kilometers_per_hour": "48338.9147811863",
                "miles_per_hour": "30035.9217983432"
            },
            "miss_distance": {
                "astronomical": "0.0297524521",
                "lunar": "11.5737038669",
                "kilometers": "4450903.461437027",
                "miles": "2765663.1654318926"
            },
            "orbiting_body": "Earth"
        }
    ],
    "orbital_data": {
        "orbit_id": "1",
        "orbit_determination_date": "2017-09-30 10:42:08",
        "first_observation_date": "2017-09-24",
        "last_observation_date": "2017-09-30",
        "data_arc_in_days": 6,
        "observations_used": 13,
        "orbit_uncertainty": "9",
        "minimum_orbit_intersection": ".00711949",
        "jupiter_tisserand_invariant": "3.571",
        "epoch_osculation": "2458021.5",
        "eccentricity": ".5709624603671516",
        "semi_major_axis": "2.04785809489601",
        "inclination": ".5929696549468053",
        "ascending_node_longitude": "285.7695758012898",
        "orbital_period": "1070.405213320181",
        "perihelion_distance": ".8786079985513964",
        "perihelion_argument": "8.262425786466913",
        "aphelion_distance": "3.217108191240624",
        "perihelion_time": "2457968.231231258921",
        "mean_anomaly": "17.91541792598899",
        "mean_motion": ".3363212319223974",
        "equinox": "J2000",
        "orbit_class": {
            "orbit_class_type": "APO",
            "orbit_class_description": "Near-Earth asteroid orbits which cross the Earth’s orbit similar to that of 1862 Apollo",
            "orbit_class_range": "a (semi-major axis) > 1.0 AU; q (perihelion) < 1.017 AU"
        }
    },
    "is_sentry_object": false
}